STARLINK-35343          
1 67334U 26003A   26035.16668981 -.00076182  00000+0 -13045-2 0  9995
2 67334  42.9996  57.6127 0001345 258.1136  75.8147 15.50598774  5223
STARLINK-36486          
1 67335U 26003B   26035.16668981 -.00064787  00000+0 -11070-2 0  9990
2 67335  42.9996  57.6082 0001287 257.9745  77.8686 15.50594705  5288
STARLINK-36480          
1 67336U 26003C   26035.16668981 -.00064313  00000+0 -10989-2 0  9994
2 67336  42.9996  57.6034 0001251 260.9215  76.8425 15.50593702  5289
STARLINK-36410          
1 67337U 26003D   26035.16668981 -.00069544  00000+0 -11894-2 0  9992
2 67337  42.9995  57.5982 0001561 259.0503  80.6281 15.50596499  5282
STARLINK-36413          
1 67338U 26003E   26035.16668981 -.00067673  00000+0 -11570-2 0  9995
2 67338  42.9996  57.5937 0001169 266.5513  75.0465 15.50596256  5285
STARLINK-36451          
1 67339U 26003F   26035.16668981 -.00063398  00000+0 -10830-2 0  9994
2 67339  42.9995  57.5883 0001231 263.6803  79.8332 15.50594642  5287
STARLINK-36339          
1 67340U 26003G   26035.16668981 -.00068135  00000+0 -11650-2 0  9991
2 67340  42.9995  57.5840 0001226 264.1712  81.2584 15.50595792  5284
STARLINK-36453          
1 67341U 26003H   26035.16668981 -.00065037  00000+0 -11115-2 0  9996
2 67341  42.9995  57.5784 0001272 262.0452  85.3061 15.50591927  5282
STARLINK-36432          
1 67342U 26003J   26035.16668981 -.00070782  00000+0 -12109-2 0  9994
2 67342  42.9996  57.5740 0001221 262.5768  86.6853 15.50596870  5279
STARLINK-36458          
1 67343U 26003K   26035.16668981 -.00066198  00000+0 -11315-2 0  9999
2 67343  42.9995  57.5694 0001187 262.1526  89.0292 15.50594229  5287
STARLINK-36422          
1 67344U 26003L   26035.16668981 -.00071448  00000+0 -12225-2 0  9995
2 67344  42.9995  57.5635 0001174 262.4953  90.6042 15.50595584  5271
STARLINK-35676          
1 67345U 26003M   26035.16668981 -.00070106  00000+0 -11991-2 0  9995
2 67345  42.9995  57.5593 0001432 262.3178  92.6975 15.50596551  5272
