CCSDS_OMM_VERS = 2.0
CREATION_DATE  = 
ORIGINATOR     = 

OBJECT_NAME    = STARLINK-35343
OBJECT_ID      = 2026-003A
CENTER_NAME    = EARTH
REF_FRAME      = TEME
TIME_SYSTEM    = UTC
MEAN_ELEMENT_THEORY = SGP/SGP4

EPOCH          = 2026-02-04T04:00:01.999584
MEAN_MOTION    = 15.50598774
ECCENTRICITY   = .0001345
INCLINATION    = 42.9996
RA_OF_ASC_NODE = 57.6127
ARG_OF_PERICENTER = 258.1136
MEAN_ANOMALY   = 75.8147

EPHEMERIS_TYPE = 0
CLASSIFICATION_TYPE = U
NORAD_CAT_ID   = 67334
ELEMENT_SET_NO = 999
REV_AT_EPOCH   = 522
BSTAR          = -.13045E-2
MEAN_MOTION_DOT = -.76182E-3
MEAN_MOTION_DDOT = 0

CCSDS_OMM_VERS = 2.0
CREATION_DATE  = 
ORIGINATOR     = 

OBJECT_NAME    = STARLINK-36486
OBJECT_ID      = 2026-003B
CENTER_NAME    = EARTH
REF_FRAME      = TEME
TIME_SYSTEM    = UTC
MEAN_ELEMENT_THEORY = SGP/SGP4

EPOCH          = 2026-02-04T04:00:01.999584
MEAN_MOTION    = 15.50594705
ECCENTRICITY   = .0001287
INCLINATION    = 42.9996
RA_OF_ASC_NODE = 57.6082
ARG_OF_PERICENTER = 257.9745
MEAN_ANOMALY   = 77.8686

EPHEMERIS_TYPE = 0
CLASSIFICATION_TYPE = U
NORAD_CAT_ID   = 67335
ELEMENT_SET_NO = 999
REV_AT_EPOCH   = 528
BSTAR          = -.1107E-2
MEAN_MOTION_DOT = -.64787E-3
MEAN_MOTION_DDOT = 0

CCSDS_OMM_VERS = 2.0
CREATION_DATE  = 
ORIGINATOR     = 

OBJECT_NAME    = STARLINK-36480
OBJECT_ID      = 2026-003C
CENTER_NAME    = EARTH
REF_FRAME      = TEME
TIME_SYSTEM    = UTC
MEAN_ELEMENT_THEORY = SGP/SGP4

EPOCH          = 2026-02-04T04:00:01.999584
MEAN_MOTION    = 15.50593702
ECCENTRICITY   = .0001251
INCLINATION    = 42.9996
RA_OF_ASC_NODE = 57.6034
ARG_OF_PERICENTER = 260.9215
MEAN_ANOMALY   = 76.8425

EPHEMERIS_TYPE = 0
CLASSIFICATION_TYPE = U
NORAD_CAT_ID   = 67336
ELEMENT_SET_NO = 999
REV_AT_EPOCH   = 528
BSTAR          = -.10989E-2
MEAN_MOTION_DOT = -.64313E-3
MEAN_MOTION_DDOT = 0

CCSDS_OMM_VERS = 2.0
CREATION_DATE  = 
ORIGINATOR     = 

OBJECT_NAME    = STARLINK-36410
OBJECT_ID      = 2026-003D
CENTER_NAME    = EARTH
REF_FRAME      = TEME
TIME_SYSTEM    = UTC
MEAN_ELEMENT_THEORY = SGP/SGP4

EPOCH          = 2026-02-04T04:00:01.999584
MEAN_MOTION    = 15.50596499
ECCENTRICITY   = .0001561
INCLINATION    = 42.9995
RA_OF_ASC_NODE = 57.5982
ARG_OF_PERICENTER = 259.0503
MEAN_ANOMALY   = 80.6281

EPHEMERIS_TYPE = 0
CLASSIFICATION_TYPE = U
NORAD_CAT_ID   = 67337
ELEMENT_SET_NO = 999
REV_AT_EPOCH   = 528
BSTAR          = -.11894E-2
MEAN_MOTION_DOT = -.69544E-3
MEAN_MOTION_DDOT = 0

CCSDS_OMM_VERS = 2.0
CREATION_DATE  = 
ORIGINATOR     = 

OBJECT_NAME    = STARLINK-36413
OBJECT_ID      = 2026-003E
CENTER_NAME    = EARTH
REF_FRAME      = TEME
TIME_SYSTEM    = UTC
MEAN_ELEMENT_THEORY = SGP/SGP4

EPOCH          = 2026-02-04T04:00:01.999584
MEAN_MOTION    = 15.50596256
ECCENTRICITY   = .0001169
INCLINATION    = 42.9996
RA_OF_ASC_NODE = 57.5937
ARG_OF_PERICENTER = 266.5513
MEAN_ANOMALY   = 75.0465

EPHEMERIS_TYPE = 0
CLASSIFICATION_TYPE = U
NORAD_CAT_ID   = 67338
ELEMENT_SET_NO = 999
REV_AT_EPOCH   = 528
BSTAR          = -.1157E-2
MEAN_MOTION_DOT = -.67673E-3
MEAN_MOTION_DDOT = 0

CCSDS_OMM_VERS = 2.0
CREATION_DATE  = 
ORIGINATOR     = 

OBJECT_NAME    = STARLINK-36451
OBJECT_ID      = 2026-003F
CENTER_NAME    = EARTH
REF_FRAME      = TEME
TIME_SYSTEM    = UTC
MEAN_ELEMENT_THEORY = SGP/SGP4

EPOCH          = 2026-02-04T04:00:01.999584
MEAN_MOTION    = 15.50594642
ECCENTRICITY   = .0001231
INCLINATION    = 42.9995
RA_OF_ASC_NODE = 57.5883
ARG_OF_PERICENTER = 263.6803
MEAN_ANOMALY   = 79.8332

EPHEMERIS_TYPE = 0
CLASSIFICATION_TYPE = U
NORAD_CAT_ID   = 67339
ELEMENT_SET_NO = 999
REV_AT_EPOCH   = 528
BSTAR          = -.1083E-2
MEAN_MOTION_DOT = -.63398E-3
MEAN_MOTION_DDOT = 0

CCSDS_OMM_VERS = 2.0
CREATION_DATE  = 
ORIGINATOR     = 

OBJECT_NAME    = STARLINK-36339
OBJECT_ID      = 2026-003G
CENTER_NAME    = EARTH
REF_FRAME      = TEME
TIME_SYSTEM    = UTC
MEAN_ELEMENT_THEORY = SGP/SGP4

EPOCH          = 2026-02-04T04:00:01.999584
MEAN_MOTION    = 15.50595792
ECCENTRICITY   = .0001226
INCLINATION    = 42.9995
RA_OF_ASC_NODE = 57.5840
ARG_OF_PERICENTER = 264.1712
MEAN_ANOMALY   = 81.2584

EPHEMERIS_TYPE = 0
CLASSIFICATION_TYPE = U
NORAD_CAT_ID   = 67340
ELEMENT_SET_NO = 999
REV_AT_EPOCH   = 528
BSTAR          = -.1165E-2
MEAN_MOTION_DOT = -.68135E-3
MEAN_MOTION_DDOT = 0

CCSDS_OMM_VERS = 2.0
CREATION_DATE  = 
ORIGINATOR     = 

OBJECT_NAME    = STARLINK-36453
OBJECT_ID      = 2026-003H
CENTER_NAME    = EARTH
REF_FRAME      = TEME
TIME_SYSTEM    = UTC
MEAN_ELEMENT_THEORY = SGP/SGP4

EPOCH          = 2026-02-04T04:00:01.999584
MEAN_MOTION    = 15.50591927
ECCENTRICITY   = .0001272
INCLINATION    = 42.9995
RA_OF_ASC_NODE = 57.5784
ARG_OF_PERICENTER = 262.0452
MEAN_ANOMALY   = 85.3061

EPHEMERIS_TYPE = 0
CLASSIFICATION_TYPE = U
NORAD_CAT_ID   = 67341
ELEMENT_SET_NO = 999
REV_AT_EPOCH   = 528
BSTAR          = -.11115E-2
MEAN_MOTION_DOT = -.65037E-3
MEAN_MOTION_DDOT = 0

CCSDS_OMM_VERS = 2.0
CREATION_DATE  = 
ORIGINATOR     = 

OBJECT_NAME    = STARLINK-36432
OBJECT_ID      = 2026-003J
CENTER_NAME    = EARTH
REF_FRAME      = TEME
TIME_SYSTEM    = UTC
MEAN_ELEMENT_THEORY = SGP/SGP4

EPOCH          = 2026-02-04T04:00:01.999584
MEAN_MOTION    = 15.50596870
ECCENTRICITY   = .0001221
INCLINATION    = 42.9996
RA_OF_ASC_NODE = 57.5740
ARG_OF_PERICENTER = 262.5768
MEAN_ANOMALY   = 86.6853

EPHEMERIS_TYPE = 0
CLASSIFICATION_TYPE = U
NORAD_CAT_ID   = 67342
ELEMENT_SET_NO = 999
REV_AT_EPOCH   = 527
BSTAR          = -.12109E-2
MEAN_MOTION_DOT = -.70782E-3
MEAN_MOTION_DDOT = 0

CCSDS_OMM_VERS = 2.0
CREATION_DATE  = 
ORIGINATOR     = 

OBJECT_NAME    = STARLINK-36458
OBJECT_ID      = 2026-003K
CENTER_NAME    = EARTH
REF_FRAME      = TEME
TIME_SYSTEM    = UTC
MEAN_ELEMENT_THEORY = SGP/SGP4

EPOCH          = 2026-02-04T04:00:01.999584
MEAN_MOTION    = 15.50594229
ECCENTRICITY   = .0001187
INCLINATION    = 42.9995
RA_OF_ASC_NODE = 57.5694
ARG_OF_PERICENTER = 262.1526
MEAN_ANOMALY   = 89.0292

EPHEMERIS_TYPE = 0
CLASSIFICATION_TYPE = U
NORAD_CAT_ID   = 67343
ELEMENT_SET_NO = 999
REV_AT_EPOCH   = 528
BSTAR          = -.11315E-2
MEAN_MOTION_DOT = -.66198E-3
MEAN_MOTION_DDOT = 0

CCSDS_OMM_VERS = 2.0
CREATION_DATE  = 
ORIGINATOR     = 

OBJECT_NAME    = STARLINK-36422
OBJECT_ID      = 2026-003L
CENTER_NAME    = EARTH
REF_FRAME      = TEME
TIME_SYSTEM    = UTC
MEAN_ELEMENT_THEORY = SGP/SGP4

EPOCH          = 2026-02-04T04:00:01.999584
MEAN_MOTION    = 15.50595584
ECCENTRICITY   = .0001174
INCLINATION    = 42.9995
RA_OF_ASC_NODE = 57.5635
ARG_OF_PERICENTER = 262.4953
MEAN_ANOMALY   = 90.6042

EPHEMERIS_TYPE = 0
CLASSIFICATION_TYPE = U
NORAD_CAT_ID   = 67344
ELEMENT_SET_NO = 999
REV_AT_EPOCH   = 527
BSTAR          = -.12225E-2
MEAN_MOTION_DOT = -.71448E-3
MEAN_MOTION_DDOT = 0

CCSDS_OMM_VERS = 2.0
CREATION_DATE  = 
ORIGINATOR     = 

OBJECT_NAME    = STARLINK-35676
OBJECT_ID      = 2026-003M
CENTER_NAME    = EARTH
REF_FRAME      = TEME
TIME_SYSTEM    = UTC
MEAN_ELEMENT_THEORY = SGP/SGP4

EPOCH          = 2026-02-04T04:00:01.999584
MEAN_MOTION    = 15.50596551
ECCENTRICITY   = .0001432
INCLINATION    = 42.9995
RA_OF_ASC_NODE = 57.5593
ARG_OF_PERICENTER = 262.3178
MEAN_ANOMALY   = 92.6975

EPHEMERIS_TYPE = 0
CLASSIFICATION_TYPE = U
NORAD_CAT_ID   = 67345
ELEMENT_SET_NO = 999
REV_AT_EPOCH   = 527
BSTAR          = -.11991E-2
MEAN_MOTION_DOT = -.70106E-3
MEAN_MOTION_DDOT = 0

